[{"OBJECT_NAME":"STARLINK-32129","OBJECT_ID":"2024-120Y","EPOCH":"2026-03-09T23:12:26.237376","MEAN_MOTION":15.30186821,"ECCENTRICITY":0.00011023,"INCLINATION":53.1612,"RA_OF_ASC_NODE":318.9879,"ARG_OF_PERICENTER":80.4957,"MEAN_ANOMALY":279.6168,"EPHEMERIS_TYPE":0,"CLASSIFICATION_TYPE":"U","NORAD_CAT_ID":60157,"ELEMENT_SET_NO":999,"REV_AT_EPOCH":9649,"BSTAR":6.2011788e-5,"MEAN_MOTION_DOT":1.477e-5,"MEAN_MOTION_DDOT":0},{"OBJECT_NAME":"USA 120","OBJECT_ID":"1996-029B","EPOCH":"2026-03-09T10:42:29.277216","MEAN_MOTION":13.46042729,"ECCENTRICITY":0.08443543,"INCLINATION":63.3197,"RA_OF_ASC_NODE":93.7012,"ARG_OF_PERICENTER":48.2921,"MEAN_ANOMALY":318.7269,"EPHEMERIS_TYPE":0,"CLASSIFICATION_TYPE":"U","NORAD_CAT_ID":23907,"ELEMENT_SET_NO":999,"REV_AT_EPOCH":9022,"BSTAR":0.00029745642,"MEAN_MOTION_DOT":1.67e-5,"MEAN_MOTION_DDOT":0}]
